UNKNOWN                 
1 87706U          25345.34208628  .00008873  00000+0  15594-2 0  9991
2 87706  98.6729 168.8507 0104489 272.2371 209.8197 14.64368152578316
UNKNOWN                 
1 87725U          25345.46811836  .00140074  00000+0  11983-1 0  9993
2 87725  82.8663 257.0272 0019123  57.3395 302.9670 14.96753834633736
UNKNOWN                 
1 87730U          25344.40589584  .00000141  00000+0  13282-3 0  9990
2 87730  82.9454 235.8268 0030437  12.7735 347.4185 13.74505082585011
UNKNOWN                 
1 87737U          25345.39016123  .00000062  00000+0  10848-3 0  9997
2 87737  99.3745 217.2180 0132894 192.9371 166.8355 13.72340602603675
UNKNOWN                 
1 87764U          25345.23462301  .00013447  00000+0  22707-2 0  9990
2 87764  65.6732 166.6082 0360224  77.6247  96.7268 14.34805379618908
UNKNOWN                 
1 87771U          25344.79400047  .00000149  00000+0  47224-3 0  9994
2 87771 100.7428 180.9170 0119796   6.7749 353.4951 13.19516191534836
UNKNOWN                 
1 87782U          25344.91974209  .00003124  00000+0  10433-1 0  9992
2 87782 102.3393 216.2772 0051321 252.3204 107.2285 13.00400977567758
UNKNOWN                 
1 87843U          25343.57229307  .00002683  00000+0  62122-2 0  9995
2 87843  99.6631  97.9875 0230947  12.0375 348.6133 13.16530394563742
UNKNOWN                 
1 87845U          25342.10705815  .00001814  00000+0  34494-2 0  9994
2 87845  98.8572 300.5142 0576132 264.4497  89.0666 12.88910939564615
UNKNOWN                 
1 87878U          25345.10927906  .00006120  00000+0  19162-2 0  9990
2 87878  99.1579 104.4842 0035227 270.2487  89.4662 14.40690629611062
UNKNOWN                 
1 87884U          25342.02119548  .00000561  00000+0  32940-3 0  9993
2 87884  98.7350  86.0325 0154867  81.7201 280.1495 14.05981151617708
UNKNOWN                 
1 87991U          25342.10819293  .00005264  00000+0  10705-1 0  9993
2 87991  28.6246 279.5590 0884471   7.2268 354.0134 12.35048234522425
