CCSDS_OMM_VERS = 2.0
CREATION_DATE  = 
ORIGINATOR     = 

OBJECT_NAME    = UNKNOWN
OBJECT_ID      = 
CENTER_NAME    = EARTH
REF_FRAME      = TEME
TIME_SYSTEM    = UTC
MEAN_ELEMENT_THEORY = SGP/SGP4

EPOCH          = 2025-12-11T08:12:36.254592
MEAN_MOTION    = 14.64368152
ECCENTRICITY   = .0104489
INCLINATION    = 98.6729
RA_OF_ASC_NODE = 168.8507
ARG_OF_PERICENTER = 272.2371
MEAN_ANOMALY   = 209.8197

EPHEMERIS_TYPE = 0
CLASSIFICATION_TYPE = U
NORAD_CAT_ID   = 87706
ELEMENT_SET_NO = 999
REV_AT_EPOCH   = 57831
BSTAR          = .15594E-2
MEAN_MOTION_DOT = .8873E-4
MEAN_MOTION_DDOT = 0

CCSDS_OMM_VERS = 2.0
CREATION_DATE  = 
ORIGINATOR     = 

OBJECT_NAME    = UNKNOWN
OBJECT_ID      = 
CENTER_NAME    = EARTH
REF_FRAME      = TEME
TIME_SYSTEM    = UTC
MEAN_ELEMENT_THEORY = SGP/SGP4

EPOCH          = 2025-12-11T11:14:05.426304
MEAN_MOTION    = 14.96753834
ECCENTRICITY   = .0019123
INCLINATION    = 82.8663
RA_OF_ASC_NODE = 257.0272
ARG_OF_PERICENTER = 57.3395
MEAN_ANOMALY   = 302.9670

EPHEMERIS_TYPE = 0
CLASSIFICATION_TYPE = U
NORAD_CAT_ID   = 87725
ELEMENT_SET_NO = 999
REV_AT_EPOCH   = 63373
BSTAR          = .11983E-1
MEAN_MOTION_DOT = .140074E-2
MEAN_MOTION_DDOT = 0

CCSDS_OMM_VERS = 2.0
CREATION_DATE  = 
ORIGINATOR     = 

OBJECT_NAME    = UNKNOWN
OBJECT_ID      = 
CENTER_NAME    = EARTH
REF_FRAME      = TEME
TIME_SYSTEM    = UTC
MEAN_ELEMENT_THEORY = SGP/SGP4

EPOCH          = 2025-12-10T09:44:29.400576
MEAN_MOTION    = 13.74505082
ECCENTRICITY   = .0030437
INCLINATION    = 82.9454
RA_OF_ASC_NODE = 235.8268
ARG_OF_PERICENTER = 12.7735
MEAN_ANOMALY   = 347.4185

EPHEMERIS_TYPE = 0
CLASSIFICATION_TYPE = U
NORAD_CAT_ID   = 87730
ELEMENT_SET_NO = 999
REV_AT_EPOCH   = 58501
BSTAR          = .13282E-3
MEAN_MOTION_DOT = .141E-5
MEAN_MOTION_DDOT = 0

CCSDS_OMM_VERS = 2.0
CREATION_DATE  = 
ORIGINATOR     = 

OBJECT_NAME    = UNKNOWN
OBJECT_ID      = 
CENTER_NAME    = EARTH
REF_FRAME      = TEME
TIME_SYSTEM    = UTC
MEAN_ELEMENT_THEORY = SGP/SGP4

EPOCH          = 2025-12-11T09:21:49.930272
MEAN_MOTION    = 13.72340602
ECCENTRICITY   = .0132894
INCLINATION    = 99.3745
RA_OF_ASC_NODE = 217.2180
ARG_OF_PERICENTER = 192.9371
MEAN_ANOMALY   = 166.8355

EPHEMERIS_TYPE = 0
CLASSIFICATION_TYPE = U
NORAD_CAT_ID   = 87737
ELEMENT_SET_NO = 999
REV_AT_EPOCH   = 60367
BSTAR          = .10848E-3
MEAN_MOTION_DOT = .62E-6
MEAN_MOTION_DDOT = 0

CCSDS_OMM_VERS = 2.0
CREATION_DATE  = 
ORIGINATOR     = 

OBJECT_NAME    = UNKNOWN
OBJECT_ID      = 
CENTER_NAME    = EARTH
REF_FRAME      = TEME
TIME_SYSTEM    = UTC
MEAN_ELEMENT_THEORY = SGP/SGP4

EPOCH          = 2025-12-11T05:37:51.428064
MEAN_MOTION    = 14.34805379
ECCENTRICITY   = .0360224
INCLINATION    = 65.6732
RA_OF_ASC_NODE = 166.6082
ARG_OF_PERICENTER = 77.6247
MEAN_ANOMALY   = 96.7268

EPHEMERIS_TYPE = 0
CLASSIFICATION_TYPE = U
NORAD_CAT_ID   = 87764
ELEMENT_SET_NO = 999
REV_AT_EPOCH   = 61890
BSTAR          = .22707E-2
MEAN_MOTION_DOT = .13447E-3
MEAN_MOTION_DDOT = 0

CCSDS_OMM_VERS = 2.0
CREATION_DATE  = 
ORIGINATOR     = 

OBJECT_NAME    = UNKNOWN
OBJECT_ID      = 
CENTER_NAME    = EARTH
REF_FRAME      = TEME
TIME_SYSTEM    = UTC
MEAN_ELEMENT_THEORY = SGP/SGP4

EPOCH          = 2025-12-10T19:03:21.640608
MEAN_MOTION    = 13.19516191
ECCENTRICITY   = .0119796
INCLINATION    = 100.7428
RA_OF_ASC_NODE = 180.9170
ARG_OF_PERICENTER = 6.7749
MEAN_ANOMALY   = 353.4951

EPHEMERIS_TYPE = 0
CLASSIFICATION_TYPE = U
NORAD_CAT_ID   = 87771
ELEMENT_SET_NO = 999
REV_AT_EPOCH   = 53483
BSTAR          = .47224E-3
MEAN_MOTION_DOT = .149E-5
MEAN_MOTION_DDOT = 0

CCSDS_OMM_VERS = 2.0
CREATION_DATE  = 
ORIGINATOR     = 

OBJECT_NAME    = UNKNOWN
OBJECT_ID      = 
CENTER_NAME    = EARTH
REF_FRAME      = TEME
TIME_SYSTEM    = UTC
MEAN_ELEMENT_THEORY = SGP/SGP4

EPOCH          = 2025-12-10T22:04:25.716576
MEAN_MOTION    = 13.00400977
ECCENTRICITY   = .0051321
INCLINATION    = 102.3393
RA_OF_ASC_NODE = 216.2772
ARG_OF_PERICENTER = 252.3204
MEAN_ANOMALY   = 107.2285

EPHEMERIS_TYPE = 0
CLASSIFICATION_TYPE = U
NORAD_CAT_ID   = 87782
ELEMENT_SET_NO = 999
REV_AT_EPOCH   = 56775
BSTAR          = .10433E-1
MEAN_MOTION_DOT = .3124E-4
MEAN_MOTION_DDOT = 0

CCSDS_OMM_VERS = 2.0
CREATION_DATE  = 
ORIGINATOR     = 

OBJECT_NAME    = UNKNOWN
OBJECT_ID      = 
CENTER_NAME    = EARTH
REF_FRAME      = TEME
TIME_SYSTEM    = UTC
MEAN_ELEMENT_THEORY = SGP/SGP4

EPOCH          = 2025-12-09T13:44:06.121248
MEAN_MOTION    = 13.16530394
ECCENTRICITY   = .0230947
INCLINATION    = 99.6631
RA_OF_ASC_NODE = 97.9875
ARG_OF_PERICENTER = 12.0375
MEAN_ANOMALY   = 348.6133

EPHEMERIS_TYPE = 0
CLASSIFICATION_TYPE = U
NORAD_CAT_ID   = 87843
ELEMENT_SET_NO = 999
REV_AT_EPOCH   = 56374
BSTAR          = .62122E-2
MEAN_MOTION_DOT = .2683E-4
MEAN_MOTION_DDOT = 0

CCSDS_OMM_VERS = 2.0
CREATION_DATE  = 
ORIGINATOR     = 

OBJECT_NAME    = UNKNOWN
OBJECT_ID      = 
CENTER_NAME    = EARTH
REF_FRAME      = TEME
TIME_SYSTEM    = UTC
MEAN_ELEMENT_THEORY = SGP/SGP4

EPOCH          = 2025-12-08T02:34:09.824160
MEAN_MOTION    = 12.88910939
ECCENTRICITY   = .0576132
INCLINATION    = 98.8572
RA_OF_ASC_NODE = 300.5142
ARG_OF_PERICENTER = 264.4497
MEAN_ANOMALY   = 89.0666

EPHEMERIS_TYPE = 0
CLASSIFICATION_TYPE = U
NORAD_CAT_ID   = 87845
ELEMENT_SET_NO = 999
REV_AT_EPOCH   = 56461
BSTAR          = .34494E-2
MEAN_MOTION_DOT = .1814E-4
MEAN_MOTION_DDOT = 0

CCSDS_OMM_VERS = 2.0
CREATION_DATE  = 
ORIGINATOR     = 

OBJECT_NAME    = UNKNOWN
OBJECT_ID      = 
CENTER_NAME    = EARTH
REF_FRAME      = TEME
TIME_SYSTEM    = UTC
MEAN_ELEMENT_THEORY = SGP/SGP4

EPOCH          = 2025-12-11T02:37:21.710784
MEAN_MOTION    = 14.40690629
ECCENTRICITY   = .0035227
INCLINATION    = 99.1579
RA_OF_ASC_NODE = 104.4842
ARG_OF_PERICENTER = 270.2487
MEAN_ANOMALY   = 89.4662

EPHEMERIS_TYPE = 0
CLASSIFICATION_TYPE = U
NORAD_CAT_ID   = 87878
ELEMENT_SET_NO = 999
REV_AT_EPOCH   = 61106
BSTAR          = .19162E-2
MEAN_MOTION_DOT = .612E-4
MEAN_MOTION_DDOT = 0

CCSDS_OMM_VERS = 2.0
CREATION_DATE  = 
ORIGINATOR     = 

OBJECT_NAME    = UNKNOWN
OBJECT_ID      = 
CENTER_NAME    = EARTH
REF_FRAME      = TEME
TIME_SYSTEM    = UTC
MEAN_ELEMENT_THEORY = SGP/SGP4

EPOCH          = 2025-12-08T00:30:31.289472
MEAN_MOTION    = 14.05981151
ECCENTRICITY   = .0154867
INCLINATION    = 98.7350
RA_OF_ASC_NODE = 86.0325
ARG_OF_PERICENTER = 81.7201
MEAN_ANOMALY   = 280.1495

EPHEMERIS_TYPE = 0
CLASSIFICATION_TYPE = U
NORAD_CAT_ID   = 87884
ELEMENT_SET_NO = 999
REV_AT_EPOCH   = 61770
BSTAR          = .3294E-3
MEAN_MOTION_DOT = .561E-5
MEAN_MOTION_DDOT = 0

CCSDS_OMM_VERS = 2.0
CREATION_DATE  = 
ORIGINATOR     = 

OBJECT_NAME    = UNKNOWN
OBJECT_ID      = 
CENTER_NAME    = EARTH
REF_FRAME      = TEME
TIME_SYSTEM    = UTC
MEAN_ELEMENT_THEORY = SGP/SGP4

EPOCH          = 2025-12-08T02:35:47.869152
MEAN_MOTION    = 12.35048234
ECCENTRICITY   = .0884471
INCLINATION    = 28.6246
RA_OF_ASC_NODE = 279.5590
ARG_OF_PERICENTER = 7.2268
MEAN_ANOMALY   = 354.0134

EPHEMERIS_TYPE = 0
CLASSIFICATION_TYPE = U
NORAD_CAT_ID   = 87991
ELEMENT_SET_NO = 999
REV_AT_EPOCH   = 52242
BSTAR          = .10705E-1
MEAN_MOTION_DOT = .5264E-4
MEAN_MOTION_DDOT = 0

